[{"OBJECT_NAME":"QIANFAN-86","OBJECT_ID":"2025-046P","EPOCH":"2026-03-07T06:50:10.066272","MEAN_MOTION":13.51002099,"ECCENTRICITY":0.00092902,"INCLINATION":88.9758,"RA_OF_ASC_NODE":311.0533,"ARG_OF_PERICENTER":246.4046,"MEAN_ANOMALY":113.613,"EPHEMERIS_TYPE":0,"CLASSIFICATION_TYPE":"U","NORAD_CAT_ID":63172,"ELEMENT_SET_NO":999,"REV_AT_EPOCH":5896,"BSTAR":0.00025214708,"MEAN_MOTION_DOT":1.75e-6,"MEAN_MOTION_DDOT":0},{"OBJECT_NAME":"QIANFAN-87","OBJECT_ID":"2025-046Q","EPOCH":"2026-03-07T06:08:47.712192","MEAN_MOTION":13.51010499,"ECCENTRICITY":0.00099905,"INCLINATION":88.9755,"RA_OF_ASC_NODE":311.1645,"ARG_OF_PERICENTER":240.8152,"MEAN_ANOMALY":119.2,"EPHEMERIS_TYPE":0,"CLASSIFICATION_TYPE":"U","NORAD_CAT_ID":63173,"ELEMENT_SET_NO":999,"REV_AT_EPOCH":5889,"BSTAR":0.00027915753,"MEAN_MOTION_DOT":1.92e-6,"MEAN_MOTION_DDOT":0},{"OBJECT_NAME":"QIANFAN-88","OBJECT_ID":"2025-046R","EPOCH":"2026-03-07T06:32:19.258368","MEAN_MOTION":13.50998815,"ECCENTRICITY":0.00103353,"INCLINATION":88.9757,"RA_OF_ASC_NODE":311.1196,"ARG_OF_PERICENTER":250.545,"MEAN_ANOMALY":109.4585,"EPHEMERIS_TYPE":0,"CLASSIFICATION_TYPE":"U","NORAD_CAT_ID":63174,"ELEMENT_SET_NO":999,"REV_AT_EPOCH":5892,"BSTAR":0.00025316759,"MEAN_MOTION_DOT":1.75e-6,"MEAN_MOTION_DDOT":0},{"OBJECT_NAME":"QIANFAN-89","OBJECT_ID":"2025-046S","EPOCH":"2026-03-07T05:39:12.325248","MEAN_MOTION":13.51009349,"ECCENTRICITY":0.00148666,"INCLINATION":88.9758,"RA_OF_ASC_NODE":311.3125,"ARG_OF_PERICENTER":240.0922,"MEAN_ANOMALY":119.8753,"EPHEMERIS_TYPE":0,"CLASSIFICATION_TYPE":"U","NORAD_CAT_ID":63175,"ELEMENT_SET_NO":999,"REV_AT_EPOCH":5881,"BSTAR":0.00027464311,"MEAN_MOTION_DOT":1.89e-6,"MEAN_MOTION_DDOT":0},{"OBJECT_NAME":"QIANFAN-90","OBJECT_ID":"2025-046T","EPOCH":"2026-03-07T06:20:43.691712","MEAN_MOTION":13.5100935,"ECCENTRICITY":0.00118234,"INCLINATION":88.9758,"RA_OF_ASC_NODE":311.282,"ARG_OF_PERICENTER":237.8559,"MEAN_ANOMALY":122.1446,"EPHEMERIS_TYPE":0,"CLASSIFICATION_TYPE":"U","NORAD_CAT_ID":63176,"ELEMENT_SET_NO":999,"REV_AT_EPOCH":5883,"BSTAR":0.00031432275,"MEAN_MOTION_DOT":2.15e-6,"MEAN_MOTION_DDOT":0},{"OBJECT_NAME":"QIANFAN-91","OBJECT_ID":"2025-233A","EPOCH":"2026-03-07T05:20:56.387040","MEAN_MOTION":13.51004612,"ECCENTRICITY":0.00019691,"INCLINATION":88.9933,"RA_OF_ASC_NODE":53.4979,"ARG_OF_PERICENTER":92.106,"MEAN_ANOMALY":268.0317,"EPHEMERIS_TYPE":0,"CLASSIFICATION_TYPE":"U","NORAD_CAT_ID":66033,"ELEMENT_SET_NO":999,"REV_AT_EPOCH":1941,"BSTAR":4.0431595e-5,"MEAN_MOTION_DOT":3.8e-7,"MEAN_MOTION_DDOT":0},{"OBJECT_NAME":"QIANFAN-92","OBJECT_ID":"2025-233B","EPOCH":"2026-03-07T05:32:41.843904","MEAN_MOTION":13.51005881,"ECCENTRICITY":0.00019642,"INCLINATION":88.9917,"RA_OF_ASC_NODE":53.4855,"ARG_OF_PERICENTER":85.8541,"MEAN_ANOMALY":274.2834,"EPHEMERIS_TYPE":0,"CLASSIFICATION_TYPE":"U","NORAD_CAT_ID":66034,"ELEMENT_SET_NO":999,"REV_AT_EPOCH":1941,"BSTAR":-4.142756e-6,"MEAN_MOTION_DOT":9.0e-8,"MEAN_MOTION_DDOT":0},{"OBJECT_NAME":"QIANFAN-93","OBJECT_ID":"2025-233C","EPOCH":"2026-03-07T05:44:33.275328","MEAN_MOTION":13.51005008,"ECCENTRICITY":0.0001935,"INCLINATION":88.9944,"RA_OF_ASC_NODE":53.5089,"ARG_OF_PERICENTER":90.7139,"MEAN_ANOMALY":269.4234,"EPHEMERIS_TYPE":0,"CLASSIFICATION_TYPE":"U","NORAD_CAT_ID":66035,"ELEMENT_SET_NO":999,"REV_AT_EPOCH":1941,"BSTAR":4.4979696e-5,"MEAN_MOTION_DOT":4.1e-7,"MEAN_MOTION_DDOT":0},{"OBJECT_NAME":"QIANFAN-94","OBJECT_ID":"2025-233D","EPOCH":"2026-03-07T05:26:34.414944","MEAN_MOTION":13.50991919,"ECCENTRICITY":0.00020679,"INCLINATION":88.9941,"RA_OF_ASC_NODE":53.4169,"ARG_OF_PERICENTER":87.6322,"MEAN_ANOMALY":272.5066,"EPHEMERIS_TYPE":0,"CLASSIFICATION_TYPE":"U","NORAD_CAT_ID":66036,"ELEMENT_SET_NO":999,"REV_AT_EPOCH":1946,"BSTAR":1.5539445e-5,"MEAN_MOTION_DOT":2.2e-7,"MEAN_MOTION_DDOT":0},{"OBJECT_NAME":"QIANFAN-95","OBJECT_ID":"2025-233E","EPOCH":"2026-03-07T05:38:25.261440","MEAN_MOTION":13.5101524,"ECCENTRICITY":0.00020877,"INCLINATION":88.9939,"RA_OF_ASC_NODE":52.9623,"ARG_OF_PERICENTER":92.9773,"MEAN_ANOMALY":267.1618,"EPHEMERIS_TYPE":0,"CLASSIFICATION_TYPE":"U","NORAD_CAT_ID":66037,"ELEMENT_SET_NO":999,"REV_AT_EPOCH":1971,"BSTAR":-2.87051e-7,"MEAN_MOTION_DOT":1.2e-7,"MEAN_MOTION_DDOT":0},{"OBJECT_NAME":"QIANFAN-96","OBJECT_ID":"2025-233F","EPOCH":"2026-03-07T06:14:14.714592","MEAN_MOTION":13.51004783,"ECCENTRICITY":0.00019822,"INCLINATION":88.9935,"RA_OF_ASC_NODE":53.5057,"ARG_OF_PERICENTER":94.2422,"MEAN_ANOMALY":265.8956,"EPHEMERIS_TYPE":0,"CLASSIFICATION_TYPE":"U","NORAD_CAT_ID":66038,"ELEMENT_SET_NO":999,"REV_AT_EPOCH":1941,"BSTAR":3.4773441e-5,"MEAN_MOTION_DOT":3.4e-7,"MEAN_MOTION_DDOT":0},{"OBJECT_NAME":"QIANFAN-97","OBJECT_ID":"2025-233G","EPOCH":"2026-03-07T05:50:31.563168","MEAN_MOTION":13.51004152,"ECCENTRICITY":0.00019541,"INCLINATION":88.9939,"RA_OF_ASC_NODE":53.4881,"ARG_OF_PERICENTER":92.1886,"MEAN_ANOMALY":267.9489,"EPHEMERIS_TYPE":0,"CLASSIFICATION_TYPE":"U","NORAD_CAT_ID":66039,"ELEMENT_SET_NO":999,"REV_AT_EPOCH":1942,"BSTAR":3.2063316e-5,"MEAN_MOTION_DOT":3.3e-7,"MEAN_MOTION_DDOT":0},{"OBJECT_NAME":"QIANFAN-98","OBJECT_ID":"2025-233H","EPOCH":"2026-03-07T06:02:17.985984","MEAN_MOTION":13.51004627,"ECCENTRICITY":0.000246,"INCLINATION":88.9928,"RA_OF_ASC_NODE":53.2292,"ARG_OF_PERICENTER":84.0593,"MEAN_ANOMALY":276.0839,"EPHEMERIS_TYPE":0,"CLASSIFICATION_TYPE":"U","NORAD_CAT_ID":66040,"ELEMENT_SET_NO":999,"REV_AT_EPOCH":1956,"BSTAR":3.066663e-5,"MEAN_MOTION_DOT":3.2e-7,"MEAN_MOTION_DDOT":0},{"OBJECT_NAME":"QIANFAN-99","OBJECT_ID":"2025-233J","EPOCH":"2026-03-07T06:08:17.547360","MEAN_MOTION":13.51004926,"ECCENTRICITY":0.00023525,"INCLINATION":88.9939,"RA_OF_ASC_NODE":53.4902,"ARG_OF_PERICENTER":87.7807,"MEAN_ANOMALY":272.3614,"EPHEMERIS_TYPE":0,"CLASSIFICATION_TYPE":"U","NORAD_CAT_ID":66041,"ELEMENT_SET_NO":999,"REV_AT_EPOCH":1942,"BSTAR":3.1979412e-5,"MEAN_MOTION_DOT":3.3e-7,"MEAN_MOTION_DDOT":0},{"OBJECT_NAME":"QIANFAN-100","OBJECT_ID":"2025-233K","EPOCH":"2026-03-07T05:56:24.015552","MEAN_MOTION":13.51005693,"ECCENTRICITY":0.00019413,"INCLINATION":88.995,"RA_OF_ASC_NODE":53.4067,"ARG_OF_PERICENTER":91.1186,"MEAN_ANOMALY":269.0187,"EPHEMERIS_TYPE":0,"CLASSIFICATION_TYPE":"U","NORAD_CAT_ID":66042,"ELEMENT_SET_NO":999,"REV_AT_EPOCH":1947,"BSTAR":2.8874798e-5,"MEAN_MOTION_DOT":3.1e-7,"MEAN_MOTION_DDOT":0},{"OBJECT_NAME":"QIANFAN-101","OBJECT_ID":"2025-233L","EPOCH":"2026-03-07T06:01:21.831168","MEAN_MOTION":14.26737102,"ECCENTRICITY":0.0017002,"INCLINATION":88.994,"RA_OF_ASC_NODE":52.2656,"ARG_OF_PERICENTER":114.228,"MEAN_ANOMALY":246.0693,"EPHEMERIS_TYPE":0,"CLASSIFICATION_TYPE":"U","NORAD_CAT_ID":66043,"ELEMENT_SET_NO":999,"REV_AT_EPOCH":2009,"BSTAR":0.00032664282,"MEAN_MOTION_DOT":8.06e-6,"MEAN_MOTION_DDOT":0},{"OBJECT_NAME":"QIANFAN-102","OBJECT_ID":"2025-233M","EPOCH":"2026-03-07T06:25:51.651552","MEAN_MOTION":13.50992538,"ECCENTRICITY":0.00021045,"INCLINATION":88.9937,"RA_OF_ASC_NODE":53.401,"ARG_OF_PERICENTER":88.1568,"MEAN_ANOMALY":271.9825,"EPHEMERIS_TYPE":0,"CLASSIFICATION_TYPE":"U","NORAD_CAT_ID":66044,"ELEMENT_SET_NO":999,"REV_AT_EPOCH":1947,"BSTAR":2.671761e-5,"MEAN_MOTION_DOT":2.9e-7,"MEAN_MOTION_DDOT":0}]
