QIANFAN-86              
1 63172U 25046P   26066.28483873  .00000175  00000+0  25215-3 0  9999
2 63172  88.9758 311.0533 0009290 246.4046 113.6130 13.51002099 58961
QIANFAN-87              
1 63173U 25046Q   26066.25610778  .00000192  00000+0  27916-3 0  9992
2 63173  88.9755 311.1645 0009990 240.8152 119.2000 13.51010499 58890
QIANFAN-88              
1 63174U 25046R   26066.27244512  .00000175  00000+0  25317-3 0  9998
2 63174  88.9757 311.1196 0010335 250.5450 109.4585 13.50998815 58927
QIANFAN-89              
1 63175U 25046S   26066.23555932  .00000189  00000+0  27464-3 0  9996
2 63175  88.9758 311.3125 0014866 240.0922 119.8753 13.51009349 58810
QIANFAN-90              
1 63176U 25046T   26066.26439458  .00000215  00000+0  31432-3 0  9994
2 63176  88.9758 311.2820 0011823 237.8559 122.1446 13.51009350 58832
QIANFAN-91              
1 66033U 25233A   26066.22287485  .00000038  00000+0  40432-4 0  9998
2 66033  88.9933  53.4979 0001969  92.1060 268.0317 13.51004612 19415
QIANFAN-92              
1 66034U 25233B   26066.23103986  .00000009  00000+0 -41428-5 0  9999
2 66034  88.9917  53.4855 0001964  85.8541 274.2834 13.51005881 19411
QIANFAN-93              
1 66035U 25233C   26066.23927402  .00000041  00000+0  44980-4 0  9997
2 66035  88.9944  53.5089 0001935  90.7139 269.4234 13.51005008 19419
QIANFAN-94              
1 66036U 25233D   26066.22678721  .00000022  00000+0  15539-4 0  9991
2 66036  88.9941  53.4169 0002067  87.6322 272.5066 13.50991919 19468
QIANFAN-95              
1 66037U 25233E   26066.23501460  .00000012  00000+0 -28705-6 0  9999
2 66037  88.9939  52.9623 0002087  92.9773 267.1618 13.51015240 19712
QIANFAN-96              
1 66038U 25233F   26066.25989253  .00000034  00000+0  34773-4 0  9995
2 66038  88.9935  53.5057 0001982  94.2422 265.8956 13.51004783 19413
QIANFAN-97              
1 66039U 25233G   26066.24342087  .00000033  00000+0  32063-4 0  9992
2 66039  88.9939  53.4881 0001954  92.1886 267.9489 13.51004152 19427
QIANFAN-98              
1 66040U 25233H   26066.25159706  .00000032  00000+0  30667-4 0  9996
2 66040  88.9928  53.2292 0002460  84.0593 276.0839 13.51004627 19561
QIANFAN-99              
1 66041U 25233J   26066.25575865  .00000033  00000+0  31979-4 0  9993
2 66041  88.9939  53.4902 0002352  87.7807 272.3614 13.51004926 19429
QIANFAN-100             
1 66042U 25233K   26066.24750018  .00000031  00000+0  28875-4 0  9997
2 66042  88.9950  53.4067 0001941  91.1186 269.0187 13.51005693 19472
QIANFAN-101             
1 66043U 25233L   26066.25094712  .00000806  00000+0  32664-3 0  9991
2 66043  88.9940  52.2656 0017002 114.2280 246.0693 14.26737102 20097
QIANFAN-102             
1 66044U 25233M   26066.26795893  .00000029  00000+0  26718-4 0  9992
2 66044  88.9937  53.4010 0002104  88.1568 271.9825 13.50992538 19472
